COSMOS 2425 (716)       
1 29670U 06062A   21018.31783351  .00000007  00000-0  00000-0 0  9998
2 29670  64.8853 260.5245 0024580 348.3591 177.4395  2.13107776109477
COSMOS 2433 (720)       
1 32275U 07052A   21022.35522698 -.00000034  00000-0  00000-0 0  9998
2 32275  66.0374  21.6398 0005346 259.4467 303.4835  2.13104192103071
COSMOS 2432 (719)       
1 32276U 07052B   21022.89799610 -.00000032  00000-0  00000+0 0  9995
2 32276  66.0503  21.7134 0011712 317.0351 251.9107  2.13103456103084
COSMOS 2434 (721)       
1 32393U 07065A   21022.47772228  .00000049  00000-0  00000-0 0  9997
2 32393  64.5010 258.9091 0003924  71.8615 113.0372  2.13103022101786
COSMOS 2436 (723)       
1 32395U 07065C   21022.30128385  .00000046  00000-0  00000+0 0  9996
2 32395  64.5096 258.9669 0015955   3.2996 182.3963  2.13102900101713
COSMOS 2456 (730)       
1 36111U 09070A   21022.34635814 -.00000002  00000-0  00000-0 0  9992
2 36111  64.2545 138.5930 0002514 332.1674 284.4451  2.13099137 86442
COSMOS 2457 (733)       
1 36112U 09070B   21022.32217801 -.00000002  00000-0  00000-0 0  9993
2 36112  64.2372 138.4820 0006343 155.4147 205.8560  2.13101367 86451
COSMOS 2459 (731)       
1 36400U 10007A   21022.33244117 -.00000035  00000-0  00000-0 0  9992
2 36400  65.9359  20.5836 0025739 343.5859  57.9816  2.13105003 84798
COSMOS 2461 (735)       
1 36401U 10007B   21022.34368966 -.00000035  00000-0  00000-0 0  9993
2 36401  65.9310  20.5477 0019817 359.0917  53.0883  2.13103670 84805
COSMOS 2460 (732)       
1 36402U 10007C   21022.51344407 -.00000035  00000-0  00000-0 0  9997
2 36402  65.9184  20.5018 0002662 272.2996 213.4631  2.13106497 84802
COSMOS 2464 (736)       
1 37139U 10041C   21022.34936932  .00000048  00000-0  00000-0 0  9997
2 37139  64.1007 258.2433 0028739  11.7803 296.6472  2.13100737 80850
COSMOS 2471 (701K)      
1 37372U 11009A   21022.31432552 -.00000036  00000-0  00000-0 0  9995
2 37372  65.9149  20.4475 0010527 234.9544 261.5890  2.13107339 77077
COSMOS 2476 (744)       
1 37867U 11064A   21022.09961597  .00000002  00000-0  00000-0 0  9998
2 37867  64.5514 139.7568 0019380 233.5030  94.8913  2.13101819 71787
COSMOS 2477 (745)       
1 37868U 11064B   21022.47950681  .00000000  00000-0  00000-0 0  9991
2 37868  64.5591 139.8026 0016820 233.9385 204.2997  2.13101647 71751
COSMOS 2475 (743)       
1 37869U 11064C   21022.58263646 -.00000001  00000-0  00000-0 0  9994
2 37869  64.5667 139.8024 0020288 256.7062 218.2343  2.13101769 71768
COSMOS 2485 (747)       
1 39155U 13019A   21022.03700023  .00000003  00000-0  00000-0 0  9992
2 39155  64.7184 140.0753 0019857 228.7340  96.1481  2.13101794 60251
COSMOS 2492 (754)       
1 39620U 14012A   21022.34998046 -.00000036  00000-0  00000-0 0  9998
2 39620  65.8077  20.2586 0015010 316.1945 283.7128  2.13103168 53211
COSMOS 2500 (755)       
1 40001U 14032A   21022.20313882 -.00000037  00000-0  00000-0 0  9990
2 40001  65.7468  20.1632 0007896 222.7156 124.5199  2.13102441 51423
COSMOS 2501 (702K)      
1 40315U 14075A   21022.34769936  .00000046  00000-0  00000-0 0  9994
2 40315  63.8145 259.1061 0015666 209.9388  54.0456  2.13101312 47839
COSMOS 2514 (751)       
1 41330U 16008A   21022.67940736 -.00000036  00000-0  00000+0 0  9994
2 41330  65.5497  19.9653 0011499 225.6010 309.8749  2.13102824 38602
COSMOS 2516 (753)       
1 41554U 16032A   21021.48557970  .00000034  00000-0  00000-0 0  9999
2 41554  64.0396 259.2698 0011780 219.1928  12.5358  2.13106629 36181
COSMOS 2522 (752)       
1 42939U 17055A   21022.48059381  .00000047  00000-0  00000-0 0  9991
2 42939  64.2726 259.4793 0006244 255.0076 245.8376  2.13102025 25969
COSMOS 2527 (756)       
1 43508U 18053A   21022.37045434  .00000001  00000-0  00000-0 0  9995
2 43508  64.8831 139.9581 0007003 221.0684 227.2711  2.13102505 20251
COSMOS 2529 (757)       
1 43687U 18086A   21022.63210375  .00000049  00000-0  00000+0 0  9997
2 43687  64.4850 259.6540 0008988 279.6276 293.0121  2.13102084 17276
COSMOS 2534 (758)       
1 44299U 19030A   21022.40377770  .00000046  00000-0  00000-0 0  9993
2 44299  64.5563 259.4973 0012525 296.5827 235.8067  2.13101926 12911
COSMOS 2544 (759)       
1 44850U 19088A   21022.28149672  .00000001  00000-0  00000-0 0  9994
2 44850  64.8667 139.8238 0010469 259.3373 164.6409  2.13102291  8690
COSMOS 2545 (760)       
1 45358U 20018A   21022.22206110 -.00000039  00000-0  00000-0 0  9990
2 45358  64.8807  21.0107 0011508 255.3150 333.2698  2.13102689  6638
